#dP2022  6 20 18  0  0.00000000      96 __u+U ITR00 EXT  IAC
## 2215 151200.00000000   900.00000000 59750 0.7500000000000
+  116   C06C07C08C09C10C11C12C13C14C16C19C20C21C22C23C24C25
+        C26C27C28C29C30C32C33C34C35C36C37C38C39C40C41C42C43
+        C44C45C46E01E02E03E04E05E07E08E09E10E11E12E13E14E15
+        E18E19E21E24E25E26E27E30E31E33E34E36G01G02G03G04G05
+        G06G07G08G09G10G11G12G13G14G15G16G17G18G19G20G21G22
+        G23G24G25G26G27G28G29G30G31G32J02J03R01R02R03R04R05
+        R07R08R09R11R12R13R14R15R17R18R19R20R21R24  0  0  0
++        10 13  6  9  9  9  7  8  9 10  8  9  7  9  8  8  9
++         8 10 11  8  7 10  9  8  8  9  9  8 10  8  9  8  9
++         8  9 10  8  6  6  7  7  7  7  8  6  8  7  6  8  7
++         9  8  8  9  8  7  9  7  7  8  8  6  7  7  8  8  8
++         7  8  8  6  8  7  7  7  8  6  7  7  7  7  8  8  9
++         6  8  7  6  7  9  7  8  8  6  9 10  9  8  8  7  8
++         9  8  9  9  9  7  8  8  7  7  9  9  8  7  0  0  0
%c M  cc GPS ccc cccc cccc cccc cccc ccccc ccccc ccccc ccccc
%c cc cc ccc ccc cccc cccc cccc cccc ccccc ccccc ccccc ccccc
%f  0.0000000  0.000000000  0.00000000000  0.000000000000000
%f  0.0000000  0.000000000  0.00000000000  0.000000000000000
%i    0    0    0    0      0      0      0      0         0
%i    0    0    0    0      0      0      0      0         0
/* IAC                                ULTRA-RAPID PREDICTION
/* S/V CLOCKS ARE ALIGNED TO GNSS TIME                      
/* G:C1WC2W R:C1PC2P E:C1XC5X C:C2IC6I J:C1CC2S             
/* PCV:IGS14_2196 OL/AL:FES2004  NONE     YN ORB:CoN CLK:CoN
*  2022 06 21 13  0  0.00000000
PC06  -1472.541495  37957.954179  18553.060972    235.147496
PC07  -9578.708959  25844.441949 -31931.688016   -328.050387
PC08 -17994.137444  35033.610757  14866.461919    372.152139
PC09   1959.097012  40474.293760  12920.141016   -904.342449
PC10  -1849.614899  26701.712910 -32293.775856    124.663713
PC11  10358.942816 -13553.069408  22148.861849    427.989789
PC12  17363.076611   6032.531728  21019.666746   -593.999534
PC13 -12421.365674  35257.233860  19352.049106      2.292741
PC14  19902.546768  -9445.966215 -17070.763999    510.962423
PC16  -3753.008187  36105.866180  21855.056748    140.574643
PC19 -10499.374880  13835.125602  21875.091851    -47.657591
PC20 -25228.863519   4575.691009  11073.419985   -965.766488
PC21  25704.594425   8128.553861   7169.892742   -527.946629
PC22  10901.022416  15506.166401  20472.398804   -963.827867
PC23   -808.489888 -20885.110458  18499.896945   -936.173770
PC24  21315.981641 -11766.711061 -13656.729366   -969.652286
PC25  13518.913789 -24029.130846   4371.924227   -718.679451
PC26  16191.166925   4815.747490 -22225.215043    720.360777
PC27 -17706.989977 -14945.080888 -15567.270452    742.412399
PC28 -10191.443105 -25977.055790    492.027231     81.135026
PC29  -3026.070020  21940.982041 -16987.698389    571.380244
PC30 -15331.622859   4640.947037 -22860.782825    500.180006
PC32 -25780.931710  -7933.174870  -7168.651612   -970.276157
PC33  10473.923692 -13886.415261 -21810.327772   -971.431360
PC34  14911.495770  -5727.884926  22866.432691   -375.901363
PC35  10390.468307  25869.416751  -1605.154606    330.828542
PC36 -14440.829905  23564.967948  -3831.723611   -969.371416
PC37 -15327.587875  -6415.883106  22437.589050   -910.405796
PC38 -22028.354860  35204.862076   6890.799281      4.727652
PC39  -6053.598835  32599.025340  26188.350438     34.997497
PC40 -15618.730764  19199.652304 -34189.771629    279.245018
PC41 -10478.181562 -15553.726769 -20613.792708    -19.466086
PC42  25704.351893  -3907.822746 -10059.269884   -958.679300
PC43   3713.293739 -21503.609836  17368.714883   -916.888005
PC44  18276.556149  14514.095094  15305.591135    699.462956
PC45   1011.113581  20646.044642 -18731.894437    789.200865
PC46 -21198.688108  13156.187094  12475.338169   -390.883762
PE01 -18657.699492  18207.288253 -14016.121564   -500.430520
PE02  18517.817251 -18252.484163  14156.643800    307.083642
PE03   7165.275493 -15779.046039 -23994.734036   -571.103972
PE04  12156.893098  22389.493805  15078.310048  -1054.830648
PE05  22700.161337    266.034116 -18985.209505   -170.096976
PE07 -24797.757490 -15890.084455   3038.017818   -680.477628
PE08 -12503.499626 -22280.430307 -14953.027225   -550.423843
PE09  24829.217198  15800.791524  -3073.866724   -561.106851
PE10   8497.416455  22698.693440  16974.928084   -521.177797
PE11  13440.446035  13110.548161  22869.880949   3274.820460
PE12   2428.781119  28194.119486   8702.655622    -22.598459
PE13 -13147.589125 -13798.445382 -22650.530871    429.410899
PE14    940.059926  22522.530061 -17842.379292  -1801.396596
PE15  -2388.667946 -28222.939901  -8592.036793    738.028414
PE18 -16394.540996 -23509.446481   4584.563113  -1303.712155
PE19  -9532.344634  14006.032502  24283.315420  -5310.409568
PE21 -27841.878115   9583.413458   3040.559521   -741.464306
PE24  20896.843297   6107.660175 -20073.389325   -682.869286
PE25  27871.387681  -9404.699838  -3299.414991   -578.369677
PE26 -16184.218271   9585.789128 -22859.494874  -1288.290487
PE27 -21713.011966  -5155.903835  19448.259922   -327.199225
PE30  -1768.247978 -17115.235956  24079.940552   -610.470810
PE31   2868.993351  16715.754498 -24250.193363   -498.639890
PE33  -9727.826314  25930.005688 -10465.074042   -455.420496
PE34   9568.223373 -26060.457498  10266.252817   -523.259979
PE36  16099.946590  -8595.880809  23296.305215   -391.267007
PG01  13373.549706 -18530.060066  12926.054657    336.770078
PG02 -14490.647134  -3079.326570 -21394.349987   -652.454277
PG03  21457.738138 -12823.874800  -8914.634958   -285.343082
PG04  12547.844904  -8844.514452 -21668.949084   -154.657152
PG05 -25627.271975   4780.751865  -5651.101127    -86.335857
PG06  -7462.455994 -18449.775961 -17490.640590    352.760439
PG07   4838.880224 -25799.245549   1793.343571    321.397599
PG08  18384.710753  -1452.241673  19201.191174    -73.064779
PG09   2561.839567 -17028.030737 -20278.424758   -326.385084
PG10   6791.536337  13533.226835  21986.306991   -463.432788
PG11 -14302.383247  -5099.603979 -21796.196971    -13.699468
PG12 -23964.806785   9719.438091  -6070.419804   -234.546804
PG13 -20291.896894  -9250.030851  14406.275976    334.041574
PG14  -4792.967088 -14648.179097  21633.548403   -111.797069
PG15 -18291.489950   3878.332761  18557.625051    -51.492989
PG16  24846.094837   1914.408257 -10093.896697   -510.488017
PG17 -11654.881508 -21932.013355   9765.551028    627.719315
PG18  -5765.285871  25836.638343   1139.677248    135.834570
PG19 -17118.453955 -20451.952128    576.043945    173.616187
PG20 -21174.982554  -2358.340262 -15709.119867    509.580067
PG21  15521.673266  -8830.628280  20068.972946    161.304871
PG22  18338.626796  19299.533761   -931.376690    279.475497
PG23  -5442.156667  16388.471728  20139.366469    -29.190593
PG24 -14198.409121  15267.313790  15911.948455    215.719515
PG25 -13051.120008  16285.534460 -16556.111531    340.045238
PG26  18421.450135   7270.939627 -17927.863650    213.704892
PG27  22023.704915  10890.402209  10361.893990    217.196626
PG28 -13722.516498 -11341.069776  20147.471515    334.064994
PG29  -3099.219432  16799.930509 -20369.440901   -526.203919
PG30  -2139.768361 -24095.089025  10761.330037   -532.019290
PG31   9595.566027  16065.766118 -18798.023452   -182.685209
PG32  14967.283338  20843.896766   7371.488876   -156.709682
PJ02 -36030.893744  19665.258834  -5177.678937     -0.871895
PJ03 -18118.771066  28588.507574 -20600.818165     -2.995555
PR01 -19111.233935 -11686.516061 -12211.670690     10.273844
PR02 -24073.838350  -4290.641522   7197.622903    521.906489
PR03 -14155.230528   5681.300718  20476.285320     58.826798
PR04   3439.936635  12039.695658  22255.350072    147.516923
PR05  19159.592194  12045.604061  11803.176502     95.011198
PR07  13598.841816  -5959.043740 -20712.872507     36.741126
PR08  -3598.979628 -12127.524082 -22086.147514    -65.808648
PR09  18772.670067  -7218.168380 -15619.700024     61.682494
PR11   8222.726054 -18127.051523  15954.279177     35.555065
PR12  -7927.521354  -7667.194671  23028.979838     18.957230
PR13 -18258.730340   6245.022336  16672.647949    -23.811868
PR14 -18483.925095  17584.844077   -589.108378     25.172164
PR15  -7686.838686  17837.152308 -16516.020931     95.223053
PR17  -6100.328600  14717.451824 -19906.842208    536.839865
PR18   2044.341221  24585.049992  -6580.233921    121.022873
PR19   8098.624319  22399.712263   9115.372831   -193.520937
PR20  10997.195564   4929.646924  22487.729769    -73.074891
PR21   5423.269073 -16054.817862  19068.668168   -311.225205
PR24 -11495.927212  -3780.371897 -22448.148607     99.769222
EOF
